[Satellite]
VERSION=1.1
NAME=IRIDIUM 95 [+]
NICKNAME=IRIDIUM 95 [+]
TLE1=1 27375U 02005D   17186.19544166  .00000137  00000-0  41971-4 0  9997
TLE2=2 27375  86.3968 279.6547 0002958  78.7262 281.4266 14.34218764813463
